CRE (WAAS/PRN 138)      
1 28868U 05036A   22033.07216918 -.00000087  00000+0  00000+0 0  9994
2 28868   0.2211  93.7920 0002001 264.4605  52.6273  1.00271467 60155
IOR-W (EGNOS/PRN 126)   
1 28899U 05044A   22033.10470809 -.00000002  00000+0  00000+0 0  9999
2 28899   3.4002  36.1079 0002554 283.3086 274.4276  1.00271054 59498
QZS-1 (QZSS/PRN 183)    
1 37158U 10045A   22032.60430372 -.00000184  00000+0  00000+0 0  9990
2 37158  42.1952 135.2716 0763932 270.5232  86.4213  1.00265010 41706
GSAT-8 (GAGAN/PRN 127)  
1 37605U 11022A   22033.46177962  .00000072  00000+0  00000+0 0  9996
2 37605   0.0258 105.1835 0007770 174.8327  73.9194  1.00269973 39242
LUCH 5A (SDCM/PRN 140)  
1 37951U 11074B   22033.60332464 -.00000062  00000+0  00000+0 0  9993
2 37951   4.6795 100.3744 0002562 235.4217 181.0209  1.00272820 37199
SES-5 (EGNOS/PRN 136)   
1 38652U 12036A   22033.30827549  .00000021  00000+0  00000+0 0  9995
2 38652   0.0560 283.1714 0001845  30.4286 294.8022  1.00271483 35061
GSAT-10 (GAGAN/PRN 128) 
1 38779U 12051B   22032.93296142 -.00000177  00000+0  00000+0 0  9992
2 38779   0.0743 272.4413 0003250 343.7604 294.7605  1.00270945 34109
LUCH 5B (SDCM/PRN 125)  
1 38977U 12061A   22033.37578242 -.00000149  00000+0  00000+0 0  9995
2 38977   6.9992  63.6138 0000992 325.2828 222.5855  1.00271326 34174
ASTRA 5B (EGNOS/PRN 123)
1 39617U 14011B   22033.31350859  .00000142  00000+0  00000+0 0  9992
2 39617   0.0711 297.5919 0003429 344.1205 355.0764  1.00273040 28867
LUCH 5V (SDCM/PRN 141)  
1 39727U 14023A   22032.82744793 -.00000282  00000+0  00000+0 0  9992
2 39727   1.1861  72.3215 0002174 290.5812 161.7059  1.00270762 28350
GSAT-15 (GAGAN/PRN 139) 
1 41028U 15065A   22033.11055174 -.00000270  00000+0  00000+0 0  9994
2 41028   0.0087 326.8359 0000859 316.1753 342.5452  1.00272159 22855
E 117 W B (WAAS/PRN 131)
1 41589U 16038B   22032.68212657 -.00000023  00000+0  00000+0 0  9995
2 41589   0.0108 207.4651 0000098 143.5915 269.3438  1.00270748 20666
SES-15 (WAAS/PRN 133)   
1 42709U 17026A   22032.99987253  .00000047  00000+0  00000+0 0  9998
2 42709   0.0185  24.9706 0000538 333.9814   3.9902  1.00273810 18186
QZS-2 (QZSS/PRN 184)    
1 42738U 17028A   22030.96859319 -.00000123  00000+0  00000+0 0  9994
2 42738  41.9991 266.1054 0752248 269.8856  83.9347  1.00275188 17122
QZS-3 (QZSS/PRN 189)    
1 42917U 17048A   22033.10882816 -.00000361  00000+0  00000+0 0  9996
2 42917   0.0575 191.6693 0001267 113.0338 353.7366  1.00274746 16362
QZS-4 (QZSS/PRN 185)    
1 42965U 17062A   22032.79112785 -.00000343  00000+0  00000+0 0  9990
2 42965  40.7957   3.8548 0750507 268.9996 281.5887  1.00290769 15808
